[
  {
    "OBJECT_NAME": "STARLINK-32464",
    "OBJECT_ID": "24224B",
    "EPOCH": "2025-11-11T03:02:01.578624",
    "MEAN_MOTION": 15.27601693,
    "ECCENTRICITY": 6.98e-05,
    "INCLINATION": 43.0047,
    "RA_OF_ASC_NODE": 108.0026,
    "ARG_OF_PERICENTER": 269.78,
    "MEAN_ANOMALY": 90.2971,
    "EPHEMERIS_TYPE": 0,
    "CLASSIFICATION_TYPE": "U",
    "NORAD_CAT_ID": 62140,
    "ELEMENT_SET_NO": 999,
    "REV_AT_EPOCH": 5428,
    "BSTAR": 0.0010147,
    "MEAN_MOTION_DOT": 0.00027784,
    "MEAN_MOTION_DDOT": 0.0,
    "TLE_LINE1": "1 62140U 24224B   25315.12640716  .00027784  00000+0  10147-2 0  9992",
    "TLE_LINE2": "2 62140  43.0047 108.0026 0000698 269.7800  90.2971 15.27601693 54282",
    "COMMENT": "Grouped by shell and plane from TLE"
  },
  {
    "OBJECT_NAME": "STARLINK-32482",
    "OBJECT_ID": "24224C",
    "EPOCH": "2025-11-11T03:40:39.625824",
    "MEAN_MOTION": 15.27571152,
    "ECCENTRICITY": 0.0001236,
    "INCLINATION": 43.0022,
    "RA_OF_ASC_NODE": 107.3416,
    "ARG_OF_PERICENTER": 274.8252,
    "MEAN_ANOMALY": 85.2458,
    "EPHEMERIS_TYPE": 0,
    "CLASSIFICATION_TYPE": "U",
    "NORAD_CAT_ID": 62141,
    "ELEMENT_SET_NO": 999,
    "REV_AT_EPOCH": 5419,
    "BSTAR": 0.0012158,
    "MEAN_MOTION_DOT": 0.00033338,
    "MEAN_MOTION_DDOT": 0.0,
    "TLE_LINE1": "1 62141U 24224C   25315.15323641  .00033338  00000+0  12158-2 0  9997",
    "TLE_LINE2": "2 62141  43.0022 107.3416 0001236 274.8252  85.2458 15.27571152 54198",
    "COMMENT": "Grouped by shell and plane from TLE"
  },
  {
    "OBJECT_NAME": "STARLINK-32374",
    "OBJECT_ID": "24224G",
    "EPOCH": "2025-11-11T00:00:02.999808",
    "MEAN_MOTION": 15.27540146,
    "ECCENTRICITY": 0.0001811,
    "INCLINATION": 43.0011,
    "RA_OF_ASC_NODE": 108.4943,
    "ARG_OF_PERICENTER": 271.7982,
    "MEAN_ANOMALY": 204.5097,
    "EPHEMERIS_TYPE": 0,
    "CLASSIFICATION_TYPE": "U",
    "NORAD_CAT_ID": 62145,
    "ELEMENT_SET_NO": 999,
    "REV_AT_EPOCH": 588,
    "BSTAR": 0.001969,
    "MEAN_MOTION_DOT": 0.00054256,
    "MEAN_MOTION_DDOT": 0.0,
    "TLE_LINE1": "1 62145U 24224G   25315.00003472  .00054256  00000+0  19690-2 0  9992",
    "TLE_LINE2": "2 62145  43.0011 108.4943 0001811 271.7982 204.5097 15.27540146  5888",
    "COMMENT": "Grouped by shell and plane from TLE"
  },
  {
    "OBJECT_NAME": "STARLINK-32295",
    "OBJECT_ID": "24224J",
    "EPOCH": "2025-11-10T19:03:49.860576",
    "MEAN_MOTION": 15.27629104,
    "ECCENTRICITY": 0.0002655,
    "INCLINATION": 43.0016,
    "RA_OF_ASC_NODE": 109.8079,
    "ARG_OF_PERICENTER": 283.4796,
    "MEAN_ANOMALY": 76.576,
    "EPHEMERIS_TYPE": 0,
    "CLASSIFICATION_TYPE": "U",
    "NORAD_CAT_ID": 62147,
    "ELEMENT_SET_NO": 999,
    "REV_AT_EPOCH": 5418,
    "BSTAR": 0.001359,
    "MEAN_MOTION_DOT": 0.00037382,
    "MEAN_MOTION_DDOT": 0.0,
    "TLE_LINE1": "1 62147U 24224J   25314.79432709  .00037382  00000+0  13590-2 0  9992",
    "TLE_LINE2": "2 62147  43.0016 109.8079 0002655 283.4796  76.5760 15.27629104 54183",
    "COMMENT": "Grouped by shell and plane from TLE"
  },
  {
    "OBJECT_NAME": "STARLINK-32468",
    "OBJECT_ID": "24224L",
    "EPOCH": "2025-11-10T20:06:31.974048",
    "MEAN_MOTION": 15.27621498,
    "ECCENTRICITY": 0.0002498,
    "INCLINATION": 43.001,
    "RA_OF_ASC_NODE": 109.2727,
    "ARG_OF_PERICENTER": 288.0135,
    "MEAN_ANOMALY": 72.0444,
    "EPHEMERIS_TYPE": 0,
    "CLASSIFICATION_TYPE": "U",
    "NORAD_CAT_ID": 62149,
    "ELEMENT_SET_NO": 999,
    "REV_AT_EPOCH": 5414,
    "BSTAR": 0.0017009,
    "MEAN_MOTION_DOT": 0.00046903,
    "MEAN_MOTION_DDOT": 0.0,
    "TLE_LINE1": "1 62149U 24224L   25314.83787007  .00046903  00000+0  17009-2 0  9991",
    "TLE_LINE2": "2 62149  43.0010 109.2727 0002498 288.0135  72.0444 15.27621498 54140",
    "COMMENT": "Grouped by shell and plane from TLE"
  },
  {
    "OBJECT_NAME": "STARLINK-32629",
    "OBJECT_ID": "24224M",
    "EPOCH": "2025-11-11T03:18:26.857440",
    "MEAN_MOTION": 15.27623341,
    "ECCENTRICITY": 0.0003191,
    "INCLINATION": 43.0028,
    "RA_OF_ASC_NODE": 107.2298,
    "ARG_OF_PERICENTER": 271.3416,
    "MEAN_ANOMALY": 88.707,
    "EPHEMERIS_TYPE": 0,
    "CLASSIFICATION_TYPE": "U",
    "NORAD_CAT_ID": 62150,
    "ELEMENT_SET_NO": 999,
    "REV_AT_EPOCH": 5435,
    "BSTAR": 0.0010421999999999999,
    "MEAN_MOTION_DOT": 0.00028567,
    "MEAN_MOTION_DDOT": 0.0,
    "TLE_LINE1": "1 62150U 24224M   25315.13781085  .00028567  00000+0  10422-2 0  9995",
    "TLE_LINE2": "2 62150  43.0028 107.2298 0003191 271.3416  88.7070 15.27623341 54351",
    "COMMENT": "Grouped by shell and plane from TLE"
  },
  {
    "OBJECT_NAME": "STARLINK-32644",
    "OBJECT_ID": "24224N",
    "EPOCH": "2025-11-11T02:52:46.805088",
    "MEAN_MOTION": 15.27587652,
    "ECCENTRICITY": 3.84e-05,
    "INCLINATION": 42.9948,
    "RA_OF_ASC_NODE": 107.9489,
    "ARG_OF_PERICENTER": 335.843,
    "MEAN_ANOMALY": 24.2403,
    "EPHEMERIS_TYPE": 0,
    "CLASSIFICATION_TYPE": "U",
    "NORAD_CAT_ID": 62151,
    "ELEMENT_SET_NO": 999,
    "REV_AT_EPOCH": 5434,
    "BSTAR": 0.0010469000000000001,
    "MEAN_MOTION_DOT": 0.00028665,
    "MEAN_MOTION_DDOT": 0.0,
    "TLE_LINE1": "1 62151U 24224N   25315.11998617  .00028665  00000+0  10469-2 0  9995",
    "TLE_LINE2": "2 62151  42.9948 107.9489 0000384 335.8430  24.2403 15.27587652 54341",
    "COMMENT": "Grouped by shell and plane from TLE"
  },
  {
    "OBJECT_NAME": "STARLINK-32639",
    "OBJECT_ID": "24224Q",
    "EPOCH": "2025-11-11T02:49:04.223136",
    "MEAN_MOTION": 15.27604688,
    "ECCENTRICITY": 0.0001209,
    "INCLINATION": 42.9964,
    "RA_OF_ASC_NODE": 107.93,
    "ARG_OF_PERICENTER": 276.9139,
    "MEAN_ANOMALY": 83.1575,
    "EPHEMERIS_TYPE": 0,
    "CLASSIFICATION_TYPE": "U",
    "NORAD_CAT_ID": 62153,
    "ELEMENT_SET_NO": 999,
    "REV_AT_EPOCH": 5418,
    "BSTAR": 0.0011558,
    "MEAN_MOTION_DOT": 0.00031705,
    "MEAN_MOTION_DDOT": 0.0,
    "TLE_LINE1": "1 62153U 24224Q   25315.11740999  .00031705  00000+0  11558-2 0  9994",
    "TLE_LINE2": "2 62153  42.9964 107.9300 0001209 276.9139  83.1575 15.27604688 54186",
    "COMMENT": "Grouped by shell and plane from TLE"
  },
  {
    "OBJECT_NAME": "STARLINK-32532",
    "OBJECT_ID": "24224T",
    "EPOCH": "2025-11-11T03:46:13.233504",
    "MEAN_MOTION": 15.27609576,
    "ECCENTRICITY": 0.0001765,
    "INCLINATION": 43.0029,
    "RA_OF_ASC_NODE": 107.3684,
    "ARG_OF_PERICENTER": 282.9771,
    "MEAN_ANOMALY": 77.0883,
    "EPHEMERIS_TYPE": 0,
    "CLASSIFICATION_TYPE": "U",
    "NORAD_CAT_ID": 62156,
    "ELEMENT_SET_NO": 999,
    "REV_AT_EPOCH": 5419,
    "BSTAR": 0.0015668000000000001,
    "MEAN_MOTION_DOT": 0.00043144,
    "MEAN_MOTION_DDOT": 0.0,
    "TLE_LINE1": "1 62156U 24224T   25315.15709761  .00043144  00000+0  15668-2 0  9999",
    "TLE_LINE2": "2 62156  43.0029 107.3684 0001765 282.9771  77.0883 15.27609576 54194",
    "COMMENT": "Grouped by shell and plane from TLE"
  },
  {
    "OBJECT_NAME": "STARLINK-32806",
    "OBJECT_ID": "25014A",
    "EPOCH": "2025-11-10T11:30:17.284608",
    "MEAN_MOTION": 15.2760121,
    "ECCENTRICITY": 0.0001743,
    "INCLINATION": 43.0037,
    "RA_OF_ASC_NODE": 107.8117,
    "ARG_OF_PERICENTER": 275.0243,
    "MEAN_ANOMALY": 85.041,
    "EPHEMERIS_TYPE": 0,
    "CLASSIFICATION_TYPE": "U",
    "NORAD_CAT_ID": 62735,
    "ELEMENT_SET_NO": 999,
    "REV_AT_EPOCH": 4502,
    "BSTAR": 0.0015314,
    "MEAN_MOTION_DOT": 0.00042148,
    "MEAN_MOTION_DDOT": 0.0,
    "TLE_LINE1": "1 62735U 25014A   25314.47936672  .00042148  00000+0  15314-2 0  9998",
    "TLE_LINE2": "2 62735  43.0037 107.8117 0001743 275.0243  85.0410 15.27601210 45029",
    "COMMENT": "Grouped by shell and plane from TLE"
  },
  {
    "OBJECT_NAME": "STARLINK-32329",
    "OBJECT_ID": "25014B",
    "EPOCH": "2025-11-11T02:44:05.517600",
    "MEAN_MOTION": 15.27621428,
    "ECCENTRICITY": 0.0001243,
    "INCLINATION": 42.9992,
    "RA_OF_ASC_NODE": 103.9633,
    "ARG_OF_PERICENTER": 280.407,
    "MEAN_ANOMALY": 79.6642,
    "EPHEMERIS_TYPE": 0,
    "CLASSIFICATION_TYPE": "U",
    "NORAD_CAT_ID": 62736,
    "ELEMENT_SET_NO": 999,
    "REV_AT_EPOCH": 4512,
    "BSTAR": 0.001143,
    "MEAN_MOTION_DOT": 0.00031365,
    "MEAN_MOTION_DDOT": 0.0,
    "TLE_LINE1": "1 62736U 25014B   25315.11395275  .00031365  00000+0  11430-2 0  9993",
    "TLE_LINE2": "2 62736  42.9992 103.9633 0001243 280.4070  79.6642 15.27621428 45121",
    "COMMENT": "Grouped by shell and plane from TLE"
  },
  {
    "OBJECT_NAME": "STARLINK-32802",
    "OBJECT_ID": "25014D",
    "EPOCH": "2025-11-10T16:49:33.464928",
    "MEAN_MOTION": 15.27598978,
    "ECCENTRICITY": 0.0002253,
    "INCLINATION": 43.0017,
    "RA_OF_ASC_NODE": 106.0216,
    "ARG_OF_PERICENTER": 272.8183,
    "MEAN_ANOMALY": 87.2411,
    "EPHEMERIS_TYPE": 0,
    "CLASSIFICATION_TYPE": "U",
    "NORAD_CAT_ID": 62738,
    "ELEMENT_SET_NO": 999,
    "REV_AT_EPOCH": 4506,
    "BSTAR": 0.0014735000000000002,
    "MEAN_MOTION_DOT": 0.00040534,
    "MEAN_MOTION_DDOT": 0.0,
    "TLE_LINE1": "1 62738U 25014D   25314.70108177  .00040534  00000+0  14735-2 0  9991",
    "TLE_LINE2": "2 62738  43.0017 106.0216 0002253 272.8183  87.2411 15.27598978 45061",
    "COMMENT": "Grouped by shell and plane from TLE"
  },
  {
    "OBJECT_NAME": "STARLINK-32796",
    "OBJECT_ID": "25014E",
    "EPOCH": "2025-11-10T16:45:51.105024",
    "MEAN_MOTION": 15.27606576,
    "ECCENTRICITY": 0.0002214,
    "INCLINATION": 43.0029,
    "RA_OF_ASC_NODE": 106.0046,
    "ARG_OF_PERICENTER": 282.7171,
    "MEAN_ANOMALY": 77.3433,
    "EPHEMERIS_TYPE": 0,
    "CLASSIFICATION_TYPE": "U",
    "NORAD_CAT_ID": 62739,
    "ELEMENT_SET_NO": 999,
    "REV_AT_EPOCH": 4506,
    "BSTAR": 0.00128,
    "MEAN_MOTION_DOT": 0.00035159,
    "MEAN_MOTION_DDOT": 0.0,
    "TLE_LINE1": "1 62739U 25014E   25314.69850816  .00035159  00000+0  12800-2 0  9992",
    "TLE_LINE2": "2 62739  43.0029 106.0046 0002214 282.7171  77.3433 15.27606576 45068",
    "COMMENT": "Grouped by shell and plane from TLE"
  }
]